{
  "norad_id": 55835,
  "name": "ONEWEB-0720",
  "history": [
    {
      "epoch": "2026-03-28T21:49:28.989120Z",
      "apogee_km": 1187.3242493445023,
      "perigee_km": 1184.2079212733552,
      "latitude_deg": 5.7737439754379734e-05,
      "longitude_deg": 167.28946878798683,
      "height_km": 1188.5869217143988,
      "semi_major_axis_km": 7563.903085308929,
      "eccentricity": 0.000206,
      "inclination_deg": 87.9199,
      "raan_deg": 320.9833,
      "arg_perigee_deg": 87.1562,
      "mean_anomaly_deg": 272.9807,
      "mean_motion_rev_day": 13.19726169
    },
    {
      "epoch": "2026-03-29T03:17:00.657888Z",
      "apogee_km": 1187.3293940892527,
      "perigee_km": 1184.197939213259,
      "latitude_deg": 4.200600416290616e-05,
      "longitude_deg": 85.13793023204397,
      "height_km": 1188.58565384718,
      "semi_major_axis_km": 7563.900666651255,
      "eccentricity": 0.000207,
      "inclination_deg": 87.9197,
      "raan_deg": 320.9379,
      "arg_perigee_deg": 87.2127,
      "mean_anomaly_deg": 272.9243,
      "mean_motion_rev_day": 13.19726802
    },
    {
      "epoch": "2026-03-30T01:07:07.485024Z",
      "apogee_km": 1187.3224916604577,
      "perigee_km": 1184.2076767821754,
      "latitude_deg": -2.511515644400873e-05,
      "longitude_deg": 116.53174087678106,
      "height_km": 1188.5784460319373,
      "semi_major_axis_km": 7563.902084221316,
      "eccentricity": 0.0002059,
      "inclination_deg": 87.9196,
      "raan_deg": 320.7569,
      "arg_perigee_deg": 86.879,
      "mean_anomaly_deg": 273.2578,
      "mean_motion_rev_day": 13.19726431
    }
  ]
}